[{"OBJECT_NAME":"TIANQI-30","OBJECT_ID":"2024-170B","EPOCH":"2026-03-09T21:12:35.925696","MEAN_MOTION":13.99108215,"ECCENTRICITY":0.00073562,"INCLINATION":44.8573,"RA_OF_ASC_NODE":219.7467,"ARG_OF_PERICENTER":348.864,"MEAN_ANOMALY":11.2027,"EPHEMERIS_TYPE":0,"CLASSIFICATION_TYPE":"U","NORAD_CAT_ID":61196,"ELEMENT_SET_NO":999,"REV_AT_EPOCH":7514,"BSTAR":0.00015101547,"MEAN_MOTION_DOT":9.2e-7,"MEAN_MOTION_DDOT":0},{"OBJECT_NAME":"CZ-6A DEB","OBJECT_ID":"2024-140WY","EPOCH":"2026-03-09T13:49:40.101312","MEAN_MOTION":14.11033644,"ECCENTRICITY":0.0094957,"INCLINATION":88.9912,"RA_OF_ASC_NODE":286.6612,"ARG_OF_PERICENTER":186.0566,"MEAN_ANOMALY":173.948,"EPHEMERIS_TYPE":0,"CLASSIFICATION_TYPE":"U","NORAD_CAT_ID":61383,"ELEMENT_SET_NO":999,"REV_AT_EPOCH":7754,"BSTAR":0.0010553,"MEAN_MOTION_DOT":1.992e-5,"MEAN_MOTION_DDOT":0}]
